STARLINK-3644           
1 51987U 22025AH  26068.31724862 -.00000535  00000+0 -15496-4 0  9999
2 51987  53.2181  40.7930 0001433  87.4978 272.6179 15.08844044221006
2024-205L               
1 61904U 24205L   26066.14074752  .00013606  00000+0  79283-3 0  9990
2 61904  97.4213 140.2188 0054772 346.2042  13.7688 15.10822925 72825
